NORAD_CAT_ID,OBJECT_NAME,OBJECT_TYPE,EPOCH,MEAN_MOTION,ECCENTRICITY,INCLINATION,RA_OF_ASC_NODE,ARG_OF_PERICENTER,MEAN_ANOMALY,BSTAR,MEAN_MOTION_DOT,MEAN_MOTION_DDOT,TLE_LINE0,TLE_LINE1,TLE_LINE2,SEMIMAJOR_AXIS,PERIOD,APOGEE,PERIGEE,DECAYED
51793.0,STARLINK-3633,PAYLOAD,2023-02-21 09:53:45,15.08846558,0.0001146,53.2145,302.3346,88.8196,271.2927,2.6079e-05,1.27e-06,0.0,0 STARLINK-3633,1 51793U 22017AB  23052.41232644  .00000127  00000-0  26079-4 0  9993,2 51793  53.2145 302.3346 0001146  88.8196 271.2927 15.08846558 56056,6917.86,95.437,540.518,538.933,0.0
51793.0,STARLINK-3633,PAYLOAD,2023-02-21 21:01:26,15.08842834,0.0001093,53.214,300.2532,91.0082,269.1035,7.512e-05,9.08e-06,0.0,0 STARLINK-3633,1 51793U 22017AB  23052.87600596  .00000908  00000-0  75120-4 0  9996,2 51793  53.2140 300.2532 0001093  91.0082 269.1035 15.08842834 56123,6917.872,95.437,540.493,538.981,0.0
51793.0,STARLINK-3633,PAYLOAD,2023-02-22 01:47:35,15.08857261,0.0001209,53.2146,299.3575,103.1114,257.0013,8.6689e-05,1.093e-05,0.0,0 STARLINK-3633,1 51793U 22017AB  23053.07471464  .00001093  00000-0  86689-4 0  9997,2 51793  53.2146 299.3575 0001209 103.1114 257.0013 15.08857261 56159,6917.828,95.436,540.529,538.856,0.0
51793.0,STARLINK-3633,PAYLOAD,2023-02-22 16:06:05,15.08827925,9.36e-05,53.2138,296.683,92.85,267.2599,-3.2638e-05,-8.07e-06,0.0,0 STARLINK-3633,1 51793U 22017AB  23053.67089747 -.00000807  00000-0 -32638-4 0  9991,2 51793  53.2138 296.6830 0000936  92.8500 267.2599 15.08827925 56249,6917.917,95.438,540.43,539.135,0.0
51793.0,STARLINK-3633,PAYLOAD,2023-02-22 22:27:38,15.08829112,9.45e-05,53.2138,295.4935,95.2736,264.8364,-2.1321e-05,-6.27e-06,0.0,0 STARLINK-3633,1 51793U 22017AB  23053.93585792 -.00000627  00000-0 -21321-4 0  9998,2 51793  53.2138 295.4935 0000945  95.2736 264.8364 15.08829112 56287,6917.914,95.438,540.432,539.125,0.0
51793.0,STARLINK-3633,PAYLOAD,2023-02-23 01:38:24,15.08835771,0.0001097,53.2143,294.898,81.8019,278.3097,-2.8021e-05,-7.34e-06,0.0,0 STARLINK-3633,1 51793U 22017AB  23054.06833485 -.00000734  00000-0 -28021-4 0  9991,2 51793  53.2143 294.8980 0001097  81.8019 278.3097 15.08835771 56304,6917.893,95.438,540.517,538.999,0.0
51793.0,STARLINK-3633,PAYLOAD,2023-02-23 22:18:23,15.08850867,9.14e-05,53.2146,291.0315,81.2037,278.9059,0.00015486,2.178e-05,0.0,0 STARLINK-3633,1 51793U 22017AB  23054.92944022  .00002178  00000-0  15486-3 0  9998,2 51793  53.2146 291.0315 0000914  81.2037 278.9059 15.08850867 56430,6917.847,95.437,540.344,539.08,0.0
51793.0,STARLINK-3633,PAYLOAD,2023-02-24 15:47:38,15.08838671,0.0001162,53.215,287.7607,68.0965,292.0151,0.00013617,1.88e-05,0.0,0 STARLINK-3633,1 51793U 22017AB  23055.65808966  .00001880  00000-0  13617-3 0  9998,2 51793  53.2150 287.7607 0001162  68.0965 292.0151 15.08838671 56541,6917.884,95.438,540.553,538.946,0.0
51793.0,STARLINK-3633,PAYLOAD,2023-02-24 22:09:11,15.08837297,0.0001148,53.2151,286.5684,82.7111,277.4011,0.00011322,1.514e-05,0.0,0 STARLINK-3633,1 51793U 22017AB  23055.92305122  .00001514  00000-0  11322-3 0  9999,2 51793  53.2151 286.5684 0001148  82.7111 277.4011 15.08837297 56583,6917.889,95.438,540.548,538.959,0.0
51793.0,STARLINK-3633,PAYLOAD,2023-02-25 01:19:57,15.08837042,0.0001043,53.2146,285.9756,78.4086,281.7023,0.00011997,1.622e-05,0.0,0 STARLINK-3633,1 51793U 22017AB  23056.05553168  .00001622  00000-0  11997-3 0  9997,2 51793  53.2146 285.9756 0001043  78.4086 281.7023 15.08837042 56609,6917.889,95.438,540.476,539.033,0.0
51793.0,STARLINK-3633,PAYLOAD,2023-02-25 20:24:35,15.08841793,0.0001128,53.2146,282.4062,76.1269,283.9849,-6.9354e-05,-1.391e-05,0.0,0 STARLINK-3633,1 51793U 22017AB  23056.85041482 -.00001391  00000-0 -69354-4 0  9992,2 51793  53.2146 282.4062 0001128  76.1269 283.9849 15.08841793 56724,6917.875,95.437,540.52,538.96,0.0
51793.0,STARLINK-3633,PAYLOAD,2023-02-25 21:59:58,15.08845328,0.0001164,53.214,282.1101,79.8255,280.2868,-4.8241e-05,-1.056e-05,0.0,0 STARLINK-3633,1 51793U 22017AB  23056.91665161 -.00001056  00000-0 -48241-4 0  9995,2 51793  53.2140 282.1101 0001164  79.8255 280.2868 15.08845328 56734,6917.864,95.437,540.534,538.924,0.0
51793.0,STARLINK-3633,PAYLOAD,2023-02-26 21:50:45,15.08848015,0.0001188,53.2148,277.6488,80.1674,279.9452,0.00015895,2.243e-05,0.0,0 STARLINK-3633,1 51793U 22017AB  23057.91024341  .00002243  00000-0  15895-3 0  9990,2 51793  53.2148 277.6488 0001188  80.1674 279.9452 15.08848015 56881,6917.856,95.437,540.543,538.899,0.0
51793.0,STARLINK-3633,PAYLOAD,2023-02-27 01:01:30,15.08854466,0.0001069,53.214,277.0555,90.7219,269.3896,0.00022388,3.278e-05,0.0,0 STARLINK-3633,1 51793U 22017AB  23058.04271782  .00003278  00000-0  22388-3 0  9992,2 51793  53.2140 277.0555 0001069  90.7219 269.3896 15.08854466 56907,6917.836,95.437,540.441,538.962,0.0
51793.0,STARLINK-3633,PAYLOAD,2023-02-27 08:58:28,15.08832029,8.19e-05,53.2152,275.5674,126.9458,233.1609,6.8707e-05,8.06e-06,0.0,0 STARLINK-3633,1 51793U 22017AB  23058.37393604  .00000806  00000-0  68707-4 0  9996,2 51793  53.2152 275.5674 0000819 126.9458 233.1609 15.08832029 56951,6917.905,95.438,540.336,539.203,0.0
51793.0,STARLINK-3633,PAYLOAD,2023-02-27 16:55:22,15.08849695,0.0001145,53.2116,274.0825,98.7981,261.3141,0.00015056,2.11e-05,0.0,0 STARLINK-3633,1 51793U 22017AB  23058.70512398  .00002110  00000-0  15056-3 0  9994,2 51793  53.2116 274.0825 0001145  98.7981 261.3141 15.08849695 57001,6917.851,95.437,540.508,538.924,0.0
51793.0,STARLINK-3633,PAYLOAD,2023-02-28 13:35:24,15.08814015,5.68e-05,53.2128,270.2155,41.2737,318.8298,-0.00060468,-9.891e-05,0.0,0 STARLINK-3633,1 51793U 22017AB  23059.56625102 -.00009891  00000-0 -60468-3 0  9999,2 51793  53.2128 270.2155 0000568  41.2737 318.8298 15.08814015 57131,6917.96,95.439,540.218,539.432,0.0
51793.0,STARLINK-3633,PAYLOAD,2023-02-28 19:56:56,15.08816044,9.95e-05,53.2123,269.0263,83.8564,276.2541,-0.00032168,-5.4e-05,0.0,0 STARLINK-3633,1 51793U 22017AB  23059.83121470 -.00005400  00000-0 -32168-3 0  9996,2 51793  53.2123 269.0263 0000995  83.8564 276.2541 15.08816044 57172,6917.954,95.439,540.507,539.13,0.0
51793.0,STARLINK-3633,PAYLOAD,2023-03-01 10:15:26,15.08825797,0.0001145,53.2115,266.3504,67.0056,293.1057,0.00097504,0.00015258,0.0,0 STARLINK-3633,1 51793U 22017AB  23060.42738428  .00015258  00000-0  97504-3 0  9995,2 51793  53.2115 266.3504 0001145  67.0056 293.1057 15.08825797 57264,6917.924,95.438,540.581,538.997,0.0
51793.0,STARLINK-3633,PAYLOAD,2023-03-01 19:47:44,15.08842429,0.0001158,53.2115,264.5662,68.5553,291.5563,0.0011841,0.00018608,0.0,0 STARLINK-3633,1 51793U 22017AB  23060.82482516  .00018608  00000-0  11841-2 0  9994,2 51793  53.2115 264.5662 0001158  68.5553 291.5563 15.08842429 57323,6917.873,95.437,540.539,538.937,0.0
51793.0,STARLINK-3633,PAYLOAD,2023-03-02 19:38:32,15.08833132,0.0001112,53.212,260.1049,67.3314,292.7796,0.00027359,4.068e-05,0.0,0 STARLINK-3633,1 51793U 22017AB  23061.81843329  .00004068  00000-0  27359-3 0  9994,2 51793  53.2120 260.1049 0001112  67.3314 292.7796 15.08833132 57470,6917.901,95.438,540.536,538.997,0.0
51793.0,STARLINK-3633,PAYLOAD,2023-03-02 22:49:18,15.08838678,0.0001104,53.2121,259.5093,70.5737,289.5374,0.00041732,6.36e-05,0.0,0 STARLINK-3633,1 51793U 22017AB  23061.95091248  .00006360  00000-0  41732-3 0  9992,2 51793  53.2121 259.5093 0001104  70.5737 289.5374 15.08838678 57496,6917.884,95.438,540.513,538.986,0.0
51793.0,STARLINK-3633,PAYLOAD,2023-03-03 13:07:46,15.08863858,9.97e-05,53.2122,256.832,84.214,275.8966,0.00089738,0.00014032,0.0,0 STARLINK-3633,1 51793U 22017AB  23062.54706399  .00014032  00000-0  89738-3 0  9991,2 51793  53.2122 256.8320 0000997  84.2140 275.8966 15.08863858 57582,6917.807,95.436,540.362,538.983,0.0
51793.0,STARLINK-3633,PAYLOAD,2023-03-03 19:29:18,15.08876914,0.0001099,53.2124,255.6439,61.4418,298.6685,0.0010865,0.00017063,0.0,0 STARLINK-3633,1 51793U 22017AB  23062.81201779  .00017063  00000-0  10865-2 0  9994,2 51793  53.2124 255.6439 0001099  61.4418 298.6685 15.08876914 57624,6917.768,95.435,540.393,538.872,0.0
51793.0,STARLINK-3633,PAYLOAD,2023-03-04 12:58:32,15.08865728,0.0001178,53.2127,252.3721,342.6619,17.4332,0.00079115,0.00012334,0.0,0 STARLINK-3633,1 51793U 22017AB  23063.54065478  .00012334  00000-0  79115-3 0  9999,2 51793  53.2127 252.3721 0001178 342.6619  17.4332 15.08865728 57739,6917.802,95.436,540.482,538.852,0.0
51793.0,STARLINK-3633,PAYLOAD,2023-03-04 17:44:41,15.08854612,0.0001155,53.2132,251.48,38.9528,321.1547,0.00026775,3.978e-05,0.0,0 STARLINK-3633,1 51793U 22017AB  23063.73937434  .00003978  00000-0  26775-3 0  9998,2 51793  53.2132 251.4800 0001155  38.9528 321.1547 15.08854612 57768,6917.836,95.437,540.5,538.902,0.0
51793.0,STARLINK-3633,PAYLOAD,2023-03-05 04:52:23,15.0884154,0.0001154,53.2128,249.3988,73.1865,286.9254,0.00025526,3.777e-05,0.0,0 STARLINK-3633,1 51793U 22017AB  23064.20305554  .00003777  00000-0  25526-3 0  9993,2 51793  53.2128 249.3988 0001154  73.1865 286.9254 15.08841540 57837,6917.876,95.437,540.539,538.942,0.0
51793.0,STARLINK-3633,PAYLOAD,2023-03-05 11:13:56,15.08841036,0.0001248,53.2138,248.2098,81.9563,278.157,3.7349e-05,3.07e-06,0.0,0 STARLINK-3633,1 51793U 22017AB  23064.46801591  .00000307  00000-0  37349-4 0  9996,2 51793  53.2138 248.2098 0001248  81.9563 278.1570 15.08841036 57872,6917.877,95.437,540.606,538.879,0.0
51793.0,STARLINK-3633,PAYLOAD,2023-03-05 19:10:52,15.08845845,0.0001121,53.2138,246.7231,86.1377,273.9744,-4.0082e-05,-9.26e-06,0.0,0 STARLINK-3633,1 51793U 22017AB  23064.79921321 -.00000926  00000-0 -40082-4 0  9993,2 51793  53.2138 246.7231 0001121  86.1377 273.9744 15.08845845 57928,6917.863,95.437,540.503,538.952,0.0
51793.0,STARLINK-3633,PAYLOAD,2023-03-06 11:04:43,15.08838059,0.0001257,53.2131,243.7495,98.4955,261.618,0.0002877,4.294e-05,0.0,0 STARLINK-3633,1 51793U 22017AB  23065.46161777  .00004294  00000-0  28770-3 0  9998,2 51793  53.2131 243.7495 0001257  98.4955 261.6180 15.08838059 58027,6917.886,95.438,540.621,538.882,0.0
